{
  "type": "FeatureCollection",
  "features": [
    {
      "type": "Feature",
      "properties": {
        "norad_id": 40115,
        "name": "WORLDVIEW-3 (WV-3)",
        "group": "resource",
        "lat": 7.438037638286616,
        "lon": -130.25620045226293,
        "alt_km": 612.3574917541755,
        "timestamp": "2025-12-02T07:10:08.766387+00:00",
        "meta_object_name": "WORLDVIEW-3 (WV-3)",
        "meta_object_id": "2014-048A",
        "meta_epoch": "2025-12-01T19:04:43.535712",
        "meta_mean_motion": 14.85465255,
        "meta_eccentricity": 0.000401,
        "meta_inclination": 97.8628,
        "meta_ra_of_asc_node": 48.2126,
        "meta_arg_of_pericenter": 224.8166,
        "meta_mean_anomaly": 135.2726,
        "meta_ephemeris_type": 0,
        "meta_classification_type": "U",
        "meta_norad_cat_id": 40115,
        "meta_element_set_no": 999,
        "meta_rev_at_epoch": 61261,
        "meta_bstar": 0.0001601,
        "meta_mean_motion_dot": 1.327e-05,
        "meta_mean_motion_ddot": 0,
        "tle_line1": "1 40115U 14048A   25335.79494833  .00001327  00000+0  16010-3 0  9996",
        "tle_line2": "2 40115  97.8628  48.2126 0004010 224.8166 135.2726 14.85465255612617"
      },
      "geometry": {
        "type": "Point",
        "coordinates": [
          -130.25620045226293,
          7.438037638286616
        ]
      }
    },
    {
      "type": "Feature",
      "properties": {
        "norad_id": 40118,
        "name": "GAOFEN-2",
        "group": "resource",
        "lat": 6.319704857380911,
        "lon": -143.6546178102797,
        "alt_km": 624.7546873972515,
        "timestamp": "2025-12-02T07:10:08.766398+00:00",
        "meta_object_name": "GAOFEN-2",
        "meta_object_id": "2014-049A",
        "meta_epoch": "2025-12-01T20:39:23.639328",
        "meta_mean_motion": 14.80576342,
        "meta_eccentricity": 0.0008131,
        "meta_inclination": 98.04,
        "meta_ra_of_asc_node": 35.0096,
        "meta_arg_of_pericenter": 144.3058,
        "meta_mean_anomaly": 215.8699,
        "meta_ephemeris_type": 0,
        "meta_classification_type": "U",
        "meta_norad_cat_id": 40118,
        "meta_element_set_no": 999,
        "meta_rev_at_epoch": 61003,
        "meta_bstar": 0.00011453,
        "meta_mean_motion_dot": 8.25e-06,
        "meta_mean_motion_ddot": 0,
        "tle_line1": "1 40118U 14049A   25335.86069027  .00000825  00000+0  11453-3 0  9999",
        "tle_line2": "2 40118  98.0400  35.0096 0008131 144.3058 215.8699 14.80576342610038"
      },
      "geometry": {
        "type": "Point",
        "coordinates": [
          -143.6546178102797,
          6.319704857380911
        ]
      }
    },
    {
      "type": "Feature",
      "properties": {
        "norad_id": 40143,
        "name": "YAOGAN-21",
        "group": "resource",
        "lat": -35.55843460560932,
        "lon": 25.235158138732764,
        "alt_km": 504.06768655069027,
        "timestamp": "2025-12-02T07:10:08.766408+00:00",
        "meta_object_name": "YAOGAN-21",
        "meta_object_id": "2014-053A",
        "meta_epoch": "2025-12-01T20:17:29.942880",
        "meta_mean_motion": 15.23453581,
        "meta_eccentricity": 0.0010326,
        "meta_inclination": 97.178,
        "meta_ra_of_asc_node": 19.6329,
        "meta_arg_of_pericenter": 74.645,
        "meta_mean_anomaly": 285.5928,
        "meta_ephemeris_type": 0,
        "meta_classification_type": "U",
        "meta_norad_cat_id": 40143,
        "meta_element_set_no": 999,
        "meta_rev_at_epoch": 62488,
        "meta_bstar": 0.000317,
        "meta_mean_motion_dot": 7.499e-05,
        "meta_mean_motion_ddot": 0,
        "tle_line1": "1 40143U 14053A   25335.84548545  .00007499  00000+0  31700-3 0  9998",
        "tle_line2": "2 40143  97.1780  19.6329 0010326  74.6450 285.5928 15.23453581624888"
      },
      "geometry": {
        "type": "Point",
        "coordinates": [
          25.235158138732764,
          -35.55843460560932
        ]
      }
    },
    {
      "type": "Feature",
      "properties": {
        "norad_id": 40275,
        "name": "YAOGAN-22",
        "group": "resource",
        "lat": 45.21001688753873,
        "lon": 108.54739311465299,
        "alt_km": 1200.8246103120564,
        "timestamp": "2025-12-02T07:10:08.766419+00:00",
        "meta_object_name": "YAOGAN-22",
        "meta_object_id": "2014-063A",
        "meta_epoch": "2025-12-01T19:58:59.855808",
        "meta_mean_motion": 13.15522096,
        "meta_eccentricity": 0.000586,
        "meta_inclination": 100.7417,
        "meta_ra_of_asc_node": 119.0985,
        "meta_arg_of_pericenter": 274.4986,
        "meta_mean_anomaly": 85.5456,
        "meta_ephemeris_type": 0,
        "meta_classification_type": "U",
        "meta_norad_cat_id": 40275,
        "meta_element_set_no": 999,
        "meta_rev_at_epoch": 53386,
        "meta_bstar": 0.00013449,
        "meta_mean_motion_dot": 4e-08,
        "meta_mean_motion_ddot": 0,
        "tle_line1": "1 40275U 14063A   25335.83263722  .00000004  00000+0  13449-3 0  9990",
        "tle_line2": "2 40275 100.7417 119.0985 0005860 274.4986  85.5456 13.15522096533864"
      },
      "geometry": {
        "type": "Point",
        "coordinates": [
          108.54739311465299,
          45.21001688753873
        ]
      }
    },
    {
      "type": "Feature",
      "properties": {
        "norad_id": 40298,
        "name": "ASNARO",
        "group": "resource",
        "lat": 9.213542933761937,
        "lon": -126.29503072300763,
        "alt_km": 504.5377781588604,
        "timestamp": "2025-12-02T07:10:08.766429+00:00",
        "meta_object_name": "ASNARO",
        "meta_object_id": "2014-070A",
        "meta_epoch": "2025-12-01T19:21:36.579168",
        "meta_mean_motion": 15.19789533,
        "meta_eccentricity": 0.0007042,
        "meta_inclination": 97.3671,
        "meta_ra_of_asc_node": 52.0221,
        "meta_arg_of_pericenter": 132.3118,
        "meta_mean_anomaly": 227.8715,
        "meta_ephemeris_type": 0,
        "meta_classification_type": "U",
        "meta_norad_cat_id": 40298,
        "meta_element_set_no": 999,
        "meta_rev_at_epoch": 61403,
        "meta_bstar": 0.00051482,
        "meta_mean_motion_dot": 0.00010968,
        "meta_mean_motion_ddot": 0,
        "tle_line1": "1 40298U 14070A   25335.80667337  .00010968  00000+0  51482-3 0  9999",
        "tle_line2": "2 40298  97.3671  52.0221 0007042 132.3118 227.8715 15.19789533614039"
      },
      "geometry": {
        "type": "Point",
        "coordinates": [
          -126.29503072300763,
          9.213542933761937
        ]
      }
    },
    {
      "type": "Feature",
      "properties": {
        "norad_id": 40310,
        "name": "YAOGAN-24",
        "group": "resource",
        "lat": -36.07015867540704,
        "lon": 113.30758544917829,
        "alt_km": 656.7389276686627,
        "timestamp": "2025-12-02T07:10:08.766440+00:00",
        "meta_object_name": "YAOGAN-24",
        "meta_object_id": "2014-072A",
        "meta_epoch": "2025-12-01T21:34:24.491712",
        "meta_mean_motion": 14.76138145,
        "meta_eccentricity": 0.0014161,
        "meta_inclination": 98.1217,
        "meta_ra_of_asc_node": 106.9351,
        "meta_arg_of_pericenter": 171.6975,
        "meta_mean_anomaly": 188.4471,
        "meta_ephemeris_type": 0,
        "meta_classification_type": "U",
        "meta_norad_cat_id": 40310,
        "meta_element_set_no": 999,
        "meta_rev_at_epoch": 59461,
        "meta_bstar": 0.0001673,
        "meta_mean_motion_dot": 1.104e-05,
        "meta_mean_motion_ddot": 0,
        "tle_line1": "1 40310U 14072A   25335.89889458  .00001104  00000+0  16730-3 0  9994",
        "tle_line2": "2 40310  98.1217 106.9351 0014161 171.6975 188.4471 14.76138145594610"
      },
      "geometry": {
        "type": "Point",
        "coordinates": [
          113.30758544917829,
          -36.07015867540704
        ]
      }
    },
    {
      "type": "Feature",
      "properties": {
        "norad_id": 40336,
        "name": "CBERS 4",
        "group": "resource",
        "lat": 30.135600526049892,
        "lon": -140.447463685239,
        "alt_km": 770.8057204092511,
        "timestamp": "2025-12-02T07:10:08.766449+00:00",
        "meta_object_name": "CBERS 4",
        "meta_object_id": "2014-079A",
        "meta_epoch": "2025-12-01T20:26:18.616704",
        "meta_mean_motion": 14.35526982,
        "meta_eccentricity": 0.0001402,
        "meta_inclination": 98.3324,
        "meta_ra_of_asc_node": 34.2402,
        "meta_arg_of_pericenter": 128.2137,
        "meta_mean_anomaly": 231.9176,
        "meta_ephemeris_type": 0,
        "meta_classification_type": "U",
        "meta_norad_cat_id": 40336,
        "meta_element_set_no": 999,
        "meta_rev_at_epoch": 57564,
        "meta_bstar": 7.3391e-05,
        "meta_mean_motion_dot": 1.69e-06,
        "meta_mean_motion_ddot": 0,
        "tle_line1": "1 40336U 14079A   25335.85160436  .00000169  00000+0  73391-4 0  9990",
        "tle_line2": "2 40336  98.3324  34.2402 0001402 128.2137 231.9176 14.35526982575644"
      },
      "geometry": {
        "type": "Point",
        "coordinates": [
          -140.447463685239,
          30.135600526049892
        ]
      }
    }
  ]
}